[{"OBJECT_NAME":"STARLINK-32241","OBJECT_ID":"2024-144N","EPOCH":"2026-03-09T17:01:46.378848","MEAN_MOTION":15.30188966,"ECCENTRICITY":0.00011018,"INCLINATION":53.1599,"RA_OF_ASC_NODE":216.9355,"ARG_OF_PERICENTER":74.4401,"MEAN_ANOMALY":285.6722,"EPHEMERIS_TYPE":0,"CLASSIFICATION_TYPE":"U","NORAD_CAT_ID":60437,"ELEMENT_SET_NO":999,"REV_AT_EPOCH":8931,"BSTAR":6.377078e-6,"MEAN_MOTION_DOT":-1.7e-6,"MEAN_MOTION_DDOT":0},{"OBJECT_NAME":"CZ-6A DEB","OBJECT_ID":"2022-151TQ","EPOCH":"2026-03-09T06:57:26.684352","MEAN_MOTION":15.22919125,"ECCENTRICITY":0.00409545,"INCLINATION":98.8216,"RA_OF_ASC_NODE":191.4692,"ARG_OF_PERICENTER":160.8215,"MEAN_ANOMALY":199.457,"EPHEMERIS_TYPE":0,"CLASSIFICATION_TYPE":"U","NORAD_CAT_ID":54975,"ELEMENT_SET_NO":999,"REV_AT_EPOCH":17711,"BSTAR":0.0066825196,"MEAN_MOTION_DOT":0.00163663,"MEAN_MOTION_DDOT":0}]
